NORAD_CAT_ID,OBJECT_NAME,OBJECT_TYPE,EPOCH,MEAN_MOTION,ECCENTRICITY,INCLINATION,RA_OF_ASC_NODE,ARG_OF_PERICENTER,MEAN_ANOMALY,BSTAR,MEAN_MOTION_DOT,MEAN_MOTION_DDOT,TLE_LINE0,TLE_LINE1,TLE_LINE2,SEMIMAJOR_AXIS,PERIOD,APOGEE,PERIGEE,DECAYED
49748.0,STARLINK-3248,PAYLOAD,2024-06-28 20:44:09,15.08838982,0.0001219,53.2166,46.7124,85.6709,274.4423,0.00013894,1.924e-05,0.0,0 STARLINK-3248,1 49748U 21115AA  24180.86400393  .00001924  00000-0  13894-3 0  9994,2 49748  53.2166  46.7124 0001219  85.6709 274.4423 15.08838982142127,6917.884,95.438,540.592,538.905,0.0
49748.0,STARLINK-3248,PAYLOAD,2024-06-28 22:19:32,15.08850147,0.000125,53.2174,46.4174,97.2203,262.8931,0.00023701,3.487e-05,0.0,0 STARLINK-3248,1 49748U 21115AA  24180.93023438  .00003487  00000-0  23701-3 0  9997,2 49748  53.2174  46.4174 0001250  97.2203 262.8931 15.08850147143247,6917.849,95.437,540.579,538.85,0.0
49748.0,STARLINK-3248,PAYLOAD,2024-06-29 14:13:25,15.08834148,0.0001162,53.2167,43.4409,71.7087,288.4031,3.8937e-06,-2.26e-06,0.0,0 STARLINK-3248,1 49748U 21115AA  24181.59265544 -.00000226  00000-0  38937-5 0  9994,2 49748  53.2167  43.4409 0001162  71.7087 288.4031 15.08834148142232,6917.898,95.438,540.567,538.959,0.0
49748.0,STARLINK-3248,PAYLOAD,2024-06-29 18:59:35,15.0883062,8.13e-05,53.2165,42.5475,60.1763,299.931,-3.5586e-05,-8.54e-06,0.0,0 STARLINK-3248,1 49748U 21115AA  24181.79137940 -.00000854  00000-0 -35586-4 0  9998,2 49748  53.2165  42.5475 0000813  60.1763 299.9310 15.08830620143372,6917.909,95.438,540.336,539.212,0.0
49748.0,STARLINK-3248,PAYLOAD,2024-06-29 22:10:21,15.0883056,9.74e-05,53.2163,41.9519,83.3643,276.746,-4.6185e-05,-1.022e-05,0.0,0 STARLINK-3248,1 49748U 21115AA  24181.92386000 -.00001022  00000-0 -46185-4 0  9991,2 49748  53.2163  41.9519 0000974  83.3643 276.7460 15.08830560142285,6917.909,95.438,540.448,539.1,0.0
49748.0,STARLINK-3248,PAYLOAD,2024-06-30 07:42:39,15.08837281,0.0001066,53.217,40.1705,80.3902,279.721,1.4278e-05,-6.1e-07,0.0,0 STARLINK-3248,1 49748U 21115AA  24182.32129622 -.00000061  00000-0  14278-4 0  9990,2 49748  53.2170  40.1705 0001066  80.3902 279.7210 15.08837281143452,6917.889,95.438,540.491,539.016,0.0
49748.0,STARLINK-3248,PAYLOAD,2024-06-30 14:04:12,15.08837433,9.38e-05,53.2168,38.979,75.7261,284.3835,6.0037e-05,6.68e-06,0.0,0 STARLINK-3248,1 49748U 21115AA  24182.58625521  .00000668  00000-0  60037-4 0  9993,2 49748  53.2168  38.9790 0000938  75.7261 284.3835 15.08837433142386,6917.888,95.438,540.402,539.104,0.0
49748.0,STARLINK-3248,PAYLOAD,2024-06-30 20:25:43,15.08858123,0.0001045,53.2167,37.7908,77.4139,282.697,7.1812e-05,8.56e-06,0.0,0 STARLINK-3248,1 49748U 21115AA  24182.85120249  .00000856  00000-0  71812-4 0  9992,2 49748  53.2167  37.7908 0001045  77.4139 282.6970 15.08858123143534,6917.825,95.436,540.413,538.967,0.0
49748.0,STARLINK-3248,PAYLOAD,2024-06-30 22:01:06,15.0886572,0.0001,53.2171,37.4909,78.3167,281.7938,0.00013154,1.808e-05,0.0,0 STARLINK-3248,1 49748U 21115AA  24182.91743442  .00001808  00000-0  13154-3 0  9997,2 49748  53.2171  37.4909 0001000  78.3167 281.7938 15.08865720142432,6917.802,95.436,540.359,538.975,0.0
49748.0,STARLINK-3248,PAYLOAD,2024-07-01 07:33:25,15.08853329,0.0001047,53.2176,35.7084,73.21,286.9007,3.5144e-05,2.72e-06,0.0,0 STARLINK-3248,1 49748U 21115AA  24183.31488251  .00000272  00000-0  35144-4 0  9994,2 49748  53.2176  35.7084 0001047  73.2100 286.9007 15.08853329143600,6917.84,95.437,540.429,538.98,0.0
49748.0,STARLINK-3248,PAYLOAD,2024-07-01 13:54:59,15.088369,0.0001385,53.2169,34.5189,99.3413,260.7735,0.00020221,2.931e-05,0.0,0 STARLINK-3248,1 49748U 21115AA  24183.57985219  .00002931  00000-0  20221-3 0  9991,2 49748  53.2169  34.5189 0001385  99.3413 260.7735 15.08836900142531,6917.89,95.438,540.713,538.797,0.0
49748.0,STARLINK-3248,PAYLOAD,2024-07-01 20:16:31,15.08838022,0.0001013,53.2171,33.3301,92.3513,267.7595,0.0001957,2.828e-05,0.0,0 STARLINK-3248,1 49748U 21115AA  24183.84481149  .00002828  00000-0  19570-3 0  9994,2 49748  53.2171  33.3301 0001013  92.3513 267.7595 15.08838022143684,6917.886,95.438,540.452,539.051,0.0
49748.0,STARLINK-3248,PAYLOAD,2024-07-02 13:45:46,15.08837688,7.78e-05,53.2163,30.0591,91.1025,269.0056,4.7417e-05,4.67e-06,0.0,0 STARLINK-3248,1 49748U 21115AA  24184.57345484  .00000467  00000-0  47417-4 0  9995,2 49748  53.2163  30.0591 0000778  91.1025 269.0056 15.08837688142685,6917.887,95.438,540.291,539.214,0.0
49748.0,STARLINK-3248,PAYLOAD,2024-07-02 20:07:19,15.08842028,0.0001295,53.2184,28.8713,82.0064,278.1075,-2.1268e-05,-6.26e-06,0.0,0 STARLINK-3248,1 49748U 21115AA  24184.83841604 -.00000626  00000-0 -21268-4 0  9994,2 49748  53.2184  28.8713 0001295  82.0064 278.1075 15.08842028142727,6917.874,95.437,540.635,538.843,0.0
49748.0,STARLINK-3248,PAYLOAD,2024-07-03 13:36:33,15.0883208,0.0001093,53.2186,25.5999,89.9159,270.1959,5.2074e-05,5.41e-06,0.0,0 STARLINK-3248,1 49748U 21115AA  24185.56705803  .00000541  00000-0  52074-4 0  9998,2 49748  53.2186  25.5999 0001093  89.9159 270.1959 15.08832080143941,6917.905,95.438,540.526,539.013,0.0
49748.0,STARLINK-3248,PAYLOAD,2024-07-03 19:58:05,15.08841734,0.0001053,53.2187,24.4106,92.6822,267.4291,4.0303e-06,-2.24e-06,0.0,0 STARLINK-3248,1 49748U 21115AA  24185.83201366 -.00000224  00000-0  40303-5 0  9995,2 49748  53.2187  24.4106 0001053  92.6822 267.4291 15.08841734143982,6917.875,95.437,540.469,539.012,0.0
49748.0,STARLINK-3248,PAYLOAD,2024-07-04 13:27:20,15.08838299,0.0001183,53.2186,21.1394,89.0197,271.0931,8.1773e-05,1.014e-05,0.0,0 STARLINK-3248,1 49748U 21115AA  24186.56065439  .00001014  00000-0  81773-4 0  9997,2 49748  53.2186  21.1394 0001183  89.0197 271.0931 15.08838299142986,6917.886,95.438,540.569,538.932,0.0
49748.0,STARLINK-3248,PAYLOAD,2024-07-04 19:48:52,15.08843858,9.53e-05,53.2187,19.9508,78.8003,281.3096,0.00011458,1.536e-05,0.0,0 STARLINK-3248,1 49748U 21115AA  24186.82561018  .00001536  00000-0  11458-3 0  9991,2 49748  53.2187  19.9508 0000953  78.8003 281.3096 15.08843858143024,6917.869,95.437,540.393,539.074,0.0
49748.0,STARLINK-3248,PAYLOAD,2024-07-05 05:21:11,15.08840423,0.0001003,53.2175,18.1651,80.0582,280.0524,7.3092e-05,8.76e-06,0.0,0 STARLINK-3248,1 49748U 21115AA  24187.22305330  .00000876  00000-0  73092-4 0  9998,2 49748  53.2175  18.1651 0001003  80.0582 280.0524 15.08840423144191,6917.879,95.438,540.438,539.05,0.0
49748.0,STARLINK-3248,PAYLOAD,2024-07-05 19:39:39,15.08843368,0.0001179,53.2188,15.4923,104.9693,255.143,0.00010616,1.402e-05,0.0,0 STARLINK-3248,1 49748U 21115AA  24187.81921146  .00001402  00000-0  10616-3 0  9990,2 49748  53.2188  15.4923 0001179 104.9693 255.1430 15.08843368143177,6917.87,95.437,540.551,538.919,0.0
49748.0,STARLINK-3248,PAYLOAD,2024-07-06 11:33:31,15.08840853,0.0001616,53.218,12.5164,85.6208,274.4969,3.5511e-06,-2.32e-06,0.0,0 STARLINK-3248,1 49748U 21115AA  24188.48161730 -.00000232  00000-0  35511-5 0  9993,2 49748  53.2180  12.5164 0001616  85.6208 274.4969 15.08840853144388,6917.878,95.438,540.861,538.625,0.0
49748.0,STARLINK-3248,PAYLOAD,2024-07-06 19:30:27,15.08833577,0.0001168,53.2189,11.0321,100.5659,259.5465,-5.5212e-05,-1.166e-05,0.0,0 STARLINK-3248,1 49748U 21115AA  24188.81282211 -.00001166  00000-0 -55212-4 0  9995,2 49748  53.2189  11.0321 0001168 100.5659 259.5465 15.08833577144431,6917.9,95.438,540.573,538.957,0.0
49748.0,STARLINK-3248,PAYLOAD,2024-07-07 11:24:18,15.08838063,0.0001181,53.2203,8.0583,99.9577,260.1548,3.7437e-05,3.08e-06,0.0,0 STARLINK-3248,1 49748U 21115AA  24189.47521823  .00000308  00000-0  37437-4 0  9997,2 49748  53.2203   8.0583 0001181  99.9577 260.1548 15.08838063144535,6917.886,95.438,540.568,538.934,0.0
49748.0,STARLINK-3248,PAYLOAD,2024-07-08 11:15:06,15.08836433,0.0001628,53.2191,3.5951,86.8437,273.2742,4.0609e-05,3.58e-06,0.0,0 STARLINK-3248,1 49748U 21115AA  24190.46882148  .00000358  00000-0  40609-4 0  9998,2 49748  53.2191   3.5951 0001628  86.8437 273.2742 15.08836433143579,6917.891,95.438,540.883,538.63,0.0
49748.0,STARLINK-3248,PAYLOAD,2024-07-08 20:47:24,15.08847133,0.0001035,53.2183,1.8114,84.4144,275.6966,0.000164,2.324e-05,0.0,0 STARLINK-3248,1 49748U 21115AA  24190.86625056  .00002324  00000-0  16400-3 0  9991,2 49748  53.2183   1.8114 0001035  84.4144 275.6966 15.08847133144746,6917.859,95.437,540.44,539.008,0.0
49748.0,STARLINK-3248,PAYLOAD,2024-07-09 04:44:20,15.08839002,0.0001255,53.219,0.3254,81.4659,278.6475,6.3419e-05,7.22e-06,0.0,0 STARLINK-3248,1 49748U 21115AA  24191.19745877  .00000722  00000-0  63419-4 0  9995,2 49748  53.2190   0.3254 0001255  81.4659 278.6475 15.08839002144794,6917.883,95.438,540.617,538.88,0.0
49748.0,STARLINK-3248,PAYLOAD,2024-07-09 11:05:53,15.08837687,0.0001287,53.2179,359.1358,82.9872,277.1267,4.546e-05,4.36e-06,0.0,0 STARLINK-3248,1 49748U 21115AA  24191.46242045  .00000436  00000-0  45460-4 0  9992,2 49748  53.2179 359.1358 0001287  82.9872 277.1267 15.08837687143721,6917.887,95.438,540.643,538.862,0.0
49748.0,STARLINK-3248,PAYLOAD,2024-07-09 17:27:25,15.08843047,0.0001222,53.2188,357.945,88.2655,271.8477,2.2677e-05,7.3e-07,0.0,0 STARLINK-3248,1 49748U 21115AA  24191.72737788  .00000073  00000-0  22677-4 0  9996,2 49748  53.2188 357.9450 0001222  88.2655 271.8477 15.08843047143762,6917.871,95.437,540.581,538.891,0.0
49748.0,STARLINK-3248,PAYLOAD,2024-07-10 04:35:07,15.08841634,0.000131,53.2192,355.8652,83.6157,276.4984,3.0654e-05,2e-06,0.0,0 STARLINK-3248,1 49748U 21115AA  24192.19105860  .00000200  00000-0  30654-4 0  9994,2 49748  53.2192 355.8652 0001310  83.6157 276.4984 15.08841634143834,6917.875,95.437,540.647,538.834,0.0
49748.0,STARLINK-3248,PAYLOAD,2024-07-10 20:28:58,15.08843902,0.0001238,53.2186,352.8908,87.5564,272.557,8.0082e-06,-1.6e-06,0.0,0 STARLINK-3248,1 49748U 21115AA  24192.85345714 -.00000160  00000-0  80082-5 0  9998,2 49748  53.2186 352.8908 0001238  87.5564 272.5570 15.08843902145045,6917.868,95.437,540.59,538.877,0.0
